[
  {
    "OBJECT_NAME": "STARLINK-30935",
    "OBJECT_ID": "23183U",
    "EPOCH": "2025-11-11T02:05:42.381312",
    "MEAN_MOTION": 15.02539041,
    "ECCENTRICITY": 0.0001145,
    "INCLINATION": 43.0052,
    "RA_OF_ASC_NODE": 327.745,
    "ARG_OF_PERICENTER": 270.3076,
    "MEAN_ANOMALY": 89.7635,
    "EPHEMERIS_TYPE": 0,
    "CLASSIFICATION_TYPE": "U",
    "NORAD_CAT_ID": 58455,
    "ELEMENT_SET_NO": 999,
    "REV_AT_EPOCH": 10887,
    "BSTAR": 0.00014931,
    "MEAN_MOTION_DOT": 1.814e-05,
    "MEAN_MOTION_DDOT": 0.0,
    "TLE_LINE1": "1 58455U 23183U   25315.08729608  .00001814  00000+0  14931-3 0  9994",
    "TLE_LINE2": "2 58455  43.0052 327.7450 0001145 270.3076  89.7635 15.02539041108879",
    "COMMENT": "Grouped by shell and plane from TLE"
  },
  {
    "OBJECT_NAME": "STARLINK-30958",
    "OBJECT_ID": "23183W",
    "EPOCH": "2025-11-11T01:43:20.162496",
    "MEAN_MOTION": 15.02520306,
    "ECCENTRICITY": 0.000229,
    "INCLINATION": 43.0073,
    "RA_OF_ASC_NODE": 327.6339,
    "ARG_OF_PERICENTER": 281.6561,
    "MEAN_ANOMALY": 78.4025,
    "EPHEMERIS_TYPE": 0,
    "CLASSIFICATION_TYPE": "U",
    "NORAD_CAT_ID": 58457,
    "ELEMENT_SET_NO": 999,
    "REV_AT_EPOCH": 10887,
    "BSTAR": 0.00021166,
    "MEAN_MOTION_DOT": 2.655e-05,
    "MEAN_MOTION_DDOT": 0.0,
    "TLE_LINE1": "1 58457U 23183W   25315.07176114  .00002655  00000+0  21166-3 0  9995",
    "TLE_LINE2": "2 58457  43.0073 327.6339 0002290 281.6561  78.4025 15.02520306108877",
    "COMMENT": "Grouped by shell and plane from TLE"
  },
  {
    "OBJECT_NAME": "STARLINK-30962",
    "OBJECT_ID": "23183X",
    "EPOCH": "2025-11-11T07:31:05.649312",
    "MEAN_MOTION": 15.02539125,
    "ECCENTRICITY": 0.0001168,
    "INCLINATION": 43.0048,
    "RA_OF_ASC_NODE": 326.0082,
    "ARG_OF_PERICENTER": 246.0589,
    "MEAN_ANOMALY": 114.0131,
    "EPHEMERIS_TYPE": 0,
    "CLASSIFICATION_TYPE": "U",
    "NORAD_CAT_ID": 58458,
    "ELEMENT_SET_NO": 999,
    "REV_AT_EPOCH": 10891,
    "BSTAR": 6.2815e-05,
    "MEAN_MOTION_DOT": 6.45e-06,
    "MEAN_MOTION_DDOT": 0.0,
    "TLE_LINE1": "1 58458U 23183X   25315.31325983  .00000645  00000+0  62815-4 0  9997",
    "TLE_LINE2": "2 58458  43.0048 326.0082 0001168 246.0589 114.0131 15.02539125108915",
    "COMMENT": "Grouped by shell and plane from TLE"
  },
  {
    "OBJECT_NAME": "STARLINK-30977",
    "OBJECT_ID": "23183Y",
    "EPOCH": "2025-11-11T00:25:11.363232",
    "MEAN_MOTION": 15.02528575,
    "ECCENTRICITY": 0.0001315,
    "INCLINATION": 43.0047,
    "RA_OF_ASC_NODE": 328.0818,
    "ARG_OF_PERICENTER": 287.7393,
    "MEAN_ANOMALY": 72.3305,
    "EPHEMERIS_TYPE": 0,
    "CLASSIFICATION_TYPE": "U",
    "NORAD_CAT_ID": 58459,
    "ELEMENT_SET_NO": 999,
    "REV_AT_EPOCH": 10886,
    "BSTAR": 0.00021043,
    "MEAN_MOTION_DOT": 2.639e-05,
    "MEAN_MOTION_DDOT": 0.0,
    "TLE_LINE1": "1 58459U 23183Y   25315.01749263  .00002639  00000+0  21043-3 0  9998",
    "TLE_LINE2": "2 58459  43.0047 328.0818 0001315 287.7393  72.3305 15.02528575108863",
    "COMMENT": "Grouped by shell and plane from TLE"
  },
  {
    "OBJECT_NAME": "STARLINK-30956",
    "OBJECT_ID": "23186J",
    "EPOCH": "2025-11-11T02:07:12.588960",
    "MEAN_MOTION": 15.02536527,
    "ECCENTRICITY": 0.0001087,
    "INCLINATION": 43.004,
    "RA_OF_ASC_NODE": 327.2294,
    "ARG_OF_PERICENTER": 273.7372,
    "MEAN_ANOMALY": 86.3346,
    "EPHEMERIS_TYPE": 0,
    "CLASSIFICATION_TYPE": "U",
    "NORAD_CAT_ID": 58481,
    "ELEMENT_SET_NO": 999,
    "REV_AT_EPOCH": 10829,
    "BSTAR": 9.795700000000001e-05,
    "MEAN_MOTION_DOT": 1.12e-05,
    "MEAN_MOTION_DDOT": 0.0,
    "TLE_LINE1": "1 58481U 23186J   25315.08834015  .00001120  00000+0  97957-4 0  9995",
    "TLE_LINE2": "2 58481  43.0040 327.2294 0001087 273.7372  86.3346 15.02536527108291",
    "COMMENT": "Grouped by shell and plane from TLE"
  }
]